[{"OBJECT_NAME":"SENTINEL-3B","OBJECT_ID":"2018-039A","EPOCH":"2026-03-09T22:56:26.429280","MEAN_MOTION":14.26736439,"ECCENTRICITY":9.653e-5,"INCLINATION":98.6227,"RA_OF_ASC_NODE":137.8858,"ARG_OF_PERICENTER":127.5232,"MEAN_ANOMALY":232.6036,"EPHEMERIS_TYPE":0,"CLASSIFICATION_TYPE":"U","NORAD_CAT_ID":43437,"ELEMENT_SET_NO":999,"REV_AT_EPOCH":40997,"BSTAR":7.6183716e-5,"MEAN_MOTION_DOT":1.41e-6,"MEAN_MOTION_DDOT":0},{"OBJECT_NAME":"COSMOS 1275 DEB","OBJECT_ID":"1981-053JC","EPOCH":"2026-03-09T17:45:31.351680","MEAN_MOTION":14.22416013,"ECCENTRICITY":0.00386203,"INCLINATION":82.7675,"RA_OF_ASC_NODE":330.4701,"ARG_OF_PERICENTER":194.2608,"MEAN_ANOMALY":165.7488,"EPHEMERIS_TYPE":0,"CLASSIFICATION_TYPE":"U","NORAD_CAT_ID":14407,"ELEMENT_SET_NO":999,"REV_AT_EPOCH":20778,"BSTAR":0.0014280703,"MEAN_MOTION_DOT":3.22e-5,"MEAN_MOTION_DDOT":0}]
